NORAD_CAT_ID,OBJECT_NAME,OBJECT_TYPE,EPOCH,MEAN_MOTION,ECCENTRICITY,INCLINATION,RA_OF_ASC_NODE,ARG_OF_PERICENTER,MEAN_ANOMALY,BSTAR,MEAN_MOTION_DOT,MEAN_MOTION_DDOT,TLE_LINE0,TLE_LINE1,TLE_LINE2,SEMIMAJOR_AXIS,PERIOD,APOGEE,PERIGEE,DECAYED
52574.0,STARLINK-3901,PAYLOAD,2023-04-12 11:17:30,15.08838947,0.0001551,53.2199,207.6082,99.7432,260.3736,-3.3282e-05,-8.18e-06,0.0,0 STARLINK-3901,1 52574U 22051AQ  23102.47049582 -.00000818  00000-0 -33282-4 0  9991,2 52574  53.2199 207.6082 0001551  99.7432 260.3736 15.08838947 51225,6917.884,95.438,540.822,538.676,0.0
52574.0,STARLINK-3901,PAYLOAD,2023-04-13 06:22:08,15.08835911,0.0001196,53.2163,204.0376,74.9622,285.1502,1.7098e-05,-1.6e-07,0.0,0 STARLINK-3901,1 52574U 22051AQ  23103.26537821 -.00000016  00000-0  17098-4 0  9993,2 52574  53.2163 204.0376 0001196  74.9622 285.1502 15.08835911 51341,6917.893,95.438,540.585,538.931,0.0
52574.0,STARLINK-3901,PAYLOAD,2023-04-14 10:59:05,15.08836635,0.0001467,53.2183,198.6879,73.0879,287.0274,0.00011878,1.603e-05,0.0,0 STARLINK-3901,1 52574U 22051AQ  23104.45770269  .00001603  00000-0  11878-3 0  9991,2 52574  53.2183 198.6879 0001467  73.0879 287.0274 15.08836635 51525,6917.891,95.438,540.771,538.741,0.0
52574.0,STARLINK-3901,PAYLOAD,2023-04-15 12:25:14,15.08849113,0.0001256,53.2168,193.9279,81.783,278.3305,0.000175,2.499e-05,0.0,0 STARLINK-3901,1 52574U 22051AQ  23105.51753415  .00002499  00000-0  17500-3 0  9995,2 52574  53.2168 193.9279 0001256  81.7830 278.3305 15.08849113 51757,6917.853,95.437,540.586,538.849,0.0
52574.0,STARLINK-3901,PAYLOAD,2023-04-15 17:11:23,15.08862796,0.000101,53.2157,193.036,96.2771,263.8336,0.0003643,5.518e-05,0.0,0 STARLINK-3901,1 52574U 22051AQ  23105.71624431  .00005518  00000-0  36430-3 0  9990,2 52574  53.2157 193.0360 0001010  96.2771 263.8336 15.08862796 51711,6917.811,95.436,540.374,538.977,0.0
52574.0,STARLINK-3901,PAYLOAD,2023-04-16 05:54:30,15.08832217,0.0001134,53.2157,190.6592,79.2334,280.8786,-1.3282e-05,-4.99e-06,0.0,0 STARLINK-3901,1 52574U 22051AQ  23106.24618139 -.00000499  00000-0 -13282-4 0  9993,2 52574  53.2157 190.6592 0001134  79.2334 280.8786 15.08832217 51863,6917.904,95.438,540.554,538.985,0.0
52574.0,STARLINK-3901,PAYLOAD,2023-04-16 12:16:01,15.08845803,0.0001343,53.217,189.4658,112.6204,247.493,3.947e-05,3.4e-06,0.0,0 STARLINK-3901,1 52574U 22051AQ  23106.51113405  .00000340  00000-0  39470-4 0  9999,2 52574  53.2170 189.4658 0001343 112.6204 247.4930 15.08845803 51839,6917.863,95.437,540.657,538.799,0.0
52574.0,STARLINK-3901,PAYLOAD,2023-04-16 15:26:48,15.0885135,0.0001227,53.2169,188.8718,99.092,261.0211,0.00014228,1.978e-05,0.0,0 STARLINK-3901,1 52574U 22051AQ  23106.64361162  .00001978  00000-0  14228-3 0  9999,2 52574  53.2169 188.8718 0001227  99.0920 261.0211 15.08851350 51851,6917.846,95.437,540.56,538.862,0.0
52574.0,STARLINK-3901,PAYLOAD,2023-04-17 10:31:26,15.08833158,0.000152,53.2178,185.3065,98.5046,261.6119,-4.5104e-05,-1.006e-05,0.0,0 STARLINK-3901,1 52574U 22051AQ  23107.43850236 -.00001006  00000-0 -45104-4 0  9994,2 52574  53.2178 185.3065 0001520  98.5046 261.6119 15.08833158 52048,6917.901,95.438,540.818,538.715,0.0
52574.0,STARLINK-3901,PAYLOAD,2023-04-17 15:17:35,15.08842134,0.0001239,53.2165,184.4132,90.3592,269.7542,9.0815e-05,1.158e-05,0.0,0 STARLINK-3901,1 52574U 22051AQ  23107.63721774  .00001158  00000-0  90815-4 0  9995,2 52574  53.2165 184.4132 0001239  90.3592 269.7542 15.08842134 52078,6917.874,95.437,540.596,538.882,0.0
52574.0,STARLINK-3901,PAYLOAD,2023-04-18 08:46:50,15.08837893,0.0001113,53.2168,181.1412,99.1031,261.0087,9.8715e-05,1.284e-05,0.0,0 STARLINK-3901,1 52574U 22051AQ  23108.36586258  .00001284  00000-0  98715-4 0  9999,2 52574  53.2168 181.1412 0001113  99.1031 261.0087 15.08837893 52112,6917.887,95.438,540.522,538.982,0.0
52574.0,STARLINK-3901,PAYLOAD,2023-04-18 15:08:22,15.08849057,0.0001243,53.2174,179.9528,101.1885,258.9247,0.00026274,3.897e-05,0.0,0 STARLINK-3901,1 52574U 22051AQ  23108.63081743  .00003897  00000-0  26274-3 0  9990,2 52574  53.2174 179.9528 0001243 101.1885 258.9247 15.08849057 52159,6917.853,95.437,540.578,538.858,0.0
52574.0,STARLINK-3901,PAYLOAD,2023-04-19 08:37:37,15.08838476,0.0001095,53.217,176.6825,106.3282,253.7831,7.1971e-05,8.58e-06,0.0,0 STARLINK-3901,1 52574U 22051AQ  23109.35946511  .00000858  00000-0  71971-4 0  9992,2 52574  53.2170 176.6825 0001095 106.3282 253.7831 15.08838476 52269,6917.885,95.438,540.508,538.993,0.0
52574.0,STARLINK-3901,PAYLOAD,2023-04-19 16:34:33,15.08846737,0.000122,53.2164,175.1956,100.942,259.1709,0.00029442,4.402e-05,0.0,0 STARLINK-3901,1 52574U 22051AQ  23109.69066341  .00004402  00000-0  29442-3 0  9997,2 52574  53.2164 175.1956 0001220 100.9420 259.1709 15.08846737 52314,6917.86,95.437,540.569,538.881,0.0
52574.0,STARLINK-3901,PAYLOAD,2023-04-20 13:14:34,15.08849291,0.0001314,53.2145,171.3293,83.6315,276.4826,0.00065454,0.00010147,0.0,0 STARLINK-3901,1 52574U 22051AQ  23110.55178555  .00010147  00000-0  65454-3 0  9991,2 52574  53.2145 171.3293 0001314  83.6315 276.4826 15.08849291 52443,6917.852,95.437,540.626,538.808,0.0
52574.0,STARLINK-3901,PAYLOAD,2023-04-20 21:11:30,15.08836596,0.0001621,53.2148,169.8445,69.2871,290.8295,0.00031986,4.806e-05,0.0,0 STARLINK-3901,1 52574U 22051AQ  23110.88299114  .00004806  00000-0  31986-3 0  9990,2 52574  53.2148 169.8445 0001621  69.2871 290.8295 15.08836596 52494,6917.891,95.438,540.877,538.634,0.0
52574.0,STARLINK-3901,PAYLOAD,2023-04-21 03:33:03,15.08833946,0.0001758,53.2143,168.6553,69.4492,290.6688,0.00023795,3.5e-05,0.0,0 STARLINK-3901,1 52574U 22051AQ  23111.14795326  .00003500  00000-0  23795-3 0  9995,2 52574  53.2143 168.6553 0001758  69.4492 290.6688 15.08833946 52601,6917.899,95.438,540.98,538.548,0.0
52574.0,STARLINK-3901,PAYLOAD,2023-04-21 09:54:35,15.08835289,0.0002018,53.2157,167.4652,75.1727,284.9489,0.00056133,8.656e-05,0.0,0 STARLINK-3901,1 52574U 22051AQ  23111.41291604  .00008656  00000-0  56133-3 0  9994,2 52574  53.2157 167.4652 0002018  75.1727 284.9489 15.08835289 52571,6917.895,95.438,541.156,538.364,0.0
52574.0,STARLINK-3901,PAYLOAD,2023-04-21 16:16:08,15.08833937,0.0001443,53.214,166.2723,84.0875,276.0282,0.0005405,8.323e-05,0.0,0 STARLINK-3901,1 52574U 22051AQ  23111.67787710  .00008323  00000-0  54050-3 0  9997,2 52574  53.2140 166.2723 0001443  84.0875 276.0282 15.08833937 52619,6917.899,95.438,540.762,538.766,0.0
52574.0,STARLINK-3901,PAYLOAD,2023-04-22 14:31:31,15.08869225,0.0001467,53.2136,162.1093,74.949,285.1664,0.00099001,0.00015516,0.0,0 STARLINK-3901,1 52574U 22051AQ  23112.60522682  .00015516  00000-0  99001-3 0  9993,2 52574  53.2136 162.1093 0001467  74.9490 285.1664 15.08869225 52823,6917.791,95.436,540.671,538.641,0.0
52574.0,STARLINK-3901,PAYLOAD,2023-04-23 12:46:56,15.08840762,0.000255,53.2145,157.9466,62.0832,298.0419,0.00047986,7.357e-05,0.0,0 STARLINK-3901,1 52574U 22051AQ  23113.53259796  .00007357  00000-0  47986-3 0  9998,2 52574  53.2145 157.9466 0002550  62.0832 298.0419 15.08840762 52894,6917.878,95.438,541.507,537.979,0.0
52574.0,STARLINK-3901,PAYLOAD,2023-04-23 14:22:17,15.08840942,0.0002435,53.2145,157.6481,206.2656,153.8213,9.668e-05,1.251e-05,0.0,0 STARLINK-3901,1 52574U 22051AQ  23113.59881823  .00001251  00000-0  96680-4 0  9999,2 52574  53.2145 157.6481 0002435 206.2656 153.8213 15.08840942 52908,6917.878,95.437,541.427,538.058,0.0
52574.0,STARLINK-3901,PAYLOAD,2023-04-24 14:13:04,15.08905001,0.0001364,53.2159,153.1884,74.6347,285.4796,0.0020675,0.00032829,0.0,0 STARLINK-3901,1 52574U 22051AQ  23114.59241505  .00032829  00000-0  20675-2 0  9991,2 52574  53.2159 153.1884 0001364  74.6347 285.4796 15.08905001 53126,6917.682,95.433,540.49,538.603,0.0
52574.0,STARLINK-3901,PAYLOAD,2023-04-25 09:17:42,15.08832724,0.0001365,53.2156,149.6193,95.1678,264.947,1.1617e-05,-1.03e-06,0.0,0 STARLINK-3901,1 52574U 22051AQ  23115.38730164 -.00000103  00000-0  11617-4 0  9992,2 52574  53.2156 149.6193 0001365  95.1678 264.9470 15.08832724 53179,6917.903,95.438,540.712,538.823,0.0
52574.0,STARLINK-3901,PAYLOAD,2023-04-26 12:19:17,15.08823072,0.0001258,53.2162,144.5636,98.5082,261.6053,6.2566e-05,7.08e-06,0.0,0 STARLINK-3901,1 52574U 22051AQ  23116.51339662  .00000708  00000-0  62566-4 0  9995,2 52574  53.2162 144.5636 0001258  98.5082 261.6053 15.08823072 53345,6917.932,95.439,540.667,538.927,0.0
52574.0,STARLINK-3901,PAYLOAD,2023-04-27 10:34:41,15.08836503,0.0001311,53.2162,140.4,95.8709,264.2433,0.00023413,3.44e-05,0.0,0 STARLINK-3901,1 52574U 22051AQ  23117.44075935  .00003440  00000-0  23413-3 0  9991,2 52574  53.2162 140.4000 0001311  95.8709 264.2433 15.08836503 53480,6917.891,95.438,540.663,538.849,0.0
52574.0,STARLINK-3901,PAYLOAD,2023-04-28 08:50:05,15.0885499,0.0001142,53.2152,136.2388,94.3689,265.7434,0.00049653,7.626e-05,0.0,0 STARLINK-3901,1 52574U 22051AQ  23118.36811394  .00007626  00000-0  49653-3 0  9994,2 52574  53.2152 136.2388 0001142  94.3689 265.7434 15.08854990 53694,6917.835,95.437,540.49,538.91,0.0
52574.0,STARLINK-3901,PAYLOAD,2023-04-28 18:22:23,15.08848807,0.0001321,53.2151,134.4559,79.173,280.9411,0.00018702,2.69e-05,0.0,0 STARLINK-3901,1 52574U 22051AQ  23118.76555452  .00002690  00000-0  18702-3 0  9995,2 52574  53.2151 134.4559 0001321  79.1730 280.9411 15.08848807 53751,6917.853,95.437,540.632,538.805,0.0
52574.0,STARLINK-3901,PAYLOAD,2023-04-29 07:05:29,15.08838776,0.0001285,53.215,132.0764,85.5061,274.6078,-1.4053e-05,-5.12e-06,0.0,0 STARLINK-3901,1 52574U 22051AQ  23119.29547794 -.00000512  00000-0 -14053-4 0  9993,2 52574  53.2150 132.0764 0001285  85.5061 274.6078 15.08838776 53763,6917.884,95.438,540.638,538.86,0.0
52574.0,STARLINK-3901,PAYLOAD,2023-04-30 11:42:25,15.08843181,0.0001331,53.2148,126.7234,85.7635,274.3509,7.4886e-05,9.04e-06,0.0,0 STARLINK-3901,1 52574U 22051AQ  23120.48779751  .00000904  00000-0  74886-4 0  9999,2 52574  53.2148 126.7234 0001331  85.7635 274.3509 15.08843181 54014,6917.871,95.437,540.656,538.815,0.0
